[{"OBJECT_NAME":"ONEWEB-0388","OBJECT_ID":"2021-090AM","EPOCH":"2026-04-13T21:18:19.928160","MEAN_MOTION":13.19727079,"ECCENTRICITY":0.0001727,"INCLINATION":87.9167,"RA_OF_ASC_NODE":317.7929,"ARG_OF_PERICENTER":90.2619,"MEAN_ANOMALY":269.8712,"EPHEMERIS_TYPE":0,"CLASSIFICATION_TYPE":"U","NORAD_CAT_ID":49314,"ELEMENT_SET_NO":999,"REV_AT_EPOCH":21793,"BSTAR":2.0003e-06,"MEAN_MOTION_DOT":1.4e-07,"MEAN_MOTION_DDOT":0.0},{"OBJECT_NAME":"ONEWEB-0389","OBJECT_ID":"2021-132A","EPOCH":"2026-04-14T04:25:41.907648","MEAN_MOTION":13.1765018,"ECCENTRICITY":0.0001494,"INCLINATION":87.9184,"RA_OF_ASC_NODE":18.5819,"ARG_OF_PERICENTER":87.27,"MEAN_ANOMALY":272.8603,"EPHEMERIS_TYPE":0,"CLASSIFICATION_TYPE":"U","NORAD_CAT_ID":50469,"ELEMENT_SET_NO":999,"REV_AT_EPOCH":20965,"BSTAR":0.00011311,"MEAN_MOTION_DOT":5.7e-07,"MEAN_MOTION_DDOT":0.0},{"OBJECT_NAME":"ONEWEB-0390","OBJECT_ID":"2021-132B","EPOCH":"2026-04-14T04:28:08.124096","MEAN_MOTION":13.17650925,"ECCENTRICITY":0.0001779,"INCLINATION":87.9187,"RA_OF_ASC_NODE":18.5822,"ARG_OF_PERICENTER":72.4942,"MEAN_ANOMALY":287.6384,"EPHEMERIS_TYPE":0,"CLASSIFICATION_TYPE":"U","NORAD_CAT_ID":50470,"ELEMENT_SET_NO":999,"REV_AT_EPOCH":20965,"BSTAR":0.00012531,"MEAN_MOTION_DOT":6.2e-07,"MEAN_MOTION_DDOT":0.0},{"OBJECT_NAME":"ONEWEB-0391","OBJECT_ID":"2021-132C","EPOCH":"2026-04-14T04:30:33.483456","MEAN_MOTION":13.17649929,"ECCENTRICITY":0.0001004,"INCLINATION":87.9189,"RA_OF_ASC_NODE":18.5911,"ARG_OF_PERICENTER":85.8057,"MEAN_ANOMALY":274.3189,"EPHEMERIS_TYPE":0,"CLASSIFICATION_TYPE":"U","NORAD_CAT_ID":50471,"ELEMENT_SET_NO":999,"REV_AT_EPOCH":20965,"BSTAR":6.6543e-05,"MEAN_MOTION_DOT":3.9e-07,"MEAN_MOTION_DDOT":0.0},{"OBJECT_NAME":"ONEWEB-0392","OBJECT_ID":"2021-132D","EPOCH":"2026-04-14T03:24:58.008384","MEAN_MOTION":13.17647275,"ECCENTRICITY":0.0001421,"INCLINATION":87.92,"RA_OF_ASC_NODE":18.5636,"ARG_OF_PERICENTER":85.8176,"MEAN_ANOMALY":274.3118,"EPHEMERIS_TYPE":0,"CLASSIFICATION_TYPE":"U","NORAD_CAT_ID":50472,"ELEMENT_SET_NO":999,"REV_AT_EPOCH":20968,"BSTAR":-0.00038001,"MEAN_MOTION_DOT":-1.35e-06,"MEAN_MOTION_DDOT":0.0},{"OBJECT_NAME":"ONEWEB-0393","OBJECT_ID":"2021-132E","EPOCH":"2026-04-14T04:39:05.279904","MEAN_MOTION":13.17649348,"ECCENTRICITY":0.000164,"INCLINATION":87.9186,"RA_OF_ASC_NODE":18.5754,"ARG_OF_PERICENTER":81.2275,"MEAN_ANOMALY":278.9042,"EPHEMERIS_TYPE":0,"CLASSIFICATION_TYPE":"U","NORAD_CAT_ID":50473,"ELEMENT_SET_NO":999,"REV_AT_EPOCH":20968,"BSTAR":-5.6985e-05,"MEAN_MOTION_DOT":-9e-08,"MEAN_MOTION_DDOT":0.0},{"OBJECT_NAME":"ONEWEB-0394","OBJECT_ID":"2021-132F","EPOCH":"2026-04-14T03:12:52.979328","MEAN_MOTION":13.18686726,"ECCENTRICITY":0.0001644,"INCLINATION":87.9227,"RA_OF_ASC_NODE":348.1771,"ARG_OF_PERICENTER":86.6473,"MEAN_ANOMALY":273.4847,"EPHEMERIS_TYPE":0,"CLASSIFICATION_TYPE":"U","NORAD_CAT_ID":50474,"ELEMENT_SET_NO":999,"REV_AT_EPOCH":21315,"BSTAR":4.4441000000000004e-05,"MEAN_MOTION_DOT":3e-07,"MEAN_MOTION_DDOT":0.0},{"OBJECT_NAME":"ONEWEB-0395","OBJECT_ID":"2021-132G","EPOCH":"2026-04-14T05:31:42.183840","MEAN_MOTION":13.114198,"ECCENTRICITY":0.0001667,"INCLINATION":87.8914,"RA_OF_ASC_NODE":33.7837,"ARG_OF_PERICENTER":75.8117,"MEAN_ANOMALY":284.3196,"EPHEMERIS_TYPE":0,"CLASSIFICATION_TYPE":"U","NORAD_CAT_ID":50475,"ELEMENT_SET_NO":999,"REV_AT_EPOCH":20733,"BSTAR":-0.00026486,"MEAN_MOTION_DOT":-8.1e-07,"MEAN_MOTION_DDOT":0.0},{"OBJECT_NAME":"ONEWEB-0396","OBJECT_ID":"2021-132H","EPOCH":"2026-04-14T03:03:23.296608","MEAN_MOTION":13.18685563,"ECCENTRICITY":0.0001646,"INCLINATION":87.9229,"RA_OF_ASC_NODE":348.1907,"ARG_OF_PERICENTER":83.9395,"MEAN_ANOMALY":276.1925,"EPHEMERIS_TYPE":0,"CLASSIFICATION_TYPE":"U","NORAD_CAT_ID":50476,"ELEMENT_SET_NO":999,"REV_AT_EPOCH":21319,"BSTAR":6.7072e-05,"MEAN_MOTION_DOT":3.9e-07,"MEAN_MOTION_DDOT":0.0},{"OBJECT_NAME":"ONEWEB-0397","OBJECT_ID":"2021-132J","EPOCH":"2026-04-14T03:24:46.219104","MEAN_MOTION":13.18684983,"ECCENTRICITY":0.0001772,"INCLINATION":87.9225,"RA_OF_ASC_NODE":348.1877,"ARG_OF_PERICENTER":88.758,"MEAN_ANOMALY":271.3755,"EPHEMERIS_TYPE":0,"CLASSIFICATION_TYPE":"U","NORAD_CAT_ID":50477,"ELEMENT_SET_NO":999,"REV_AT_EPOCH":21317,"BSTAR":-4.0923e-05,"MEAN_MOTION_DOT":-3e-08,"MEAN_MOTION_DDOT":0.0},{"OBJECT_NAME":"ONEWEB-0398","OBJECT_ID":"2021-132K","EPOCH":"2026-04-14T06:35:11.431104","MEAN_MOTION":13.11416595,"ECCENTRICITY":0.0001758,"INCLINATION":87.8926,"RA_OF_ASC_NODE":33.7591,"ARG_OF_PERICENTER":69.6213,"MEAN_ANOMALY":290.5104,"EPHEMERIS_TYPE":0,"CLASSIFICATION_TYPE":"U","NORAD_CAT_ID":50478,"ELEMENT_SET_NO":999,"REV_AT_EPOCH":20723,"BSTAR":-0.00021971,"MEAN_MOTION_DOT":-6.5e-07,"MEAN_MOTION_DDOT":0.0},{"OBJECT_NAME":"ONEWEB-0399","OBJECT_ID":"2021-132L","EPOCH":"2026-04-14T00:46:03.078048","MEAN_MOTION":13.11414275,"ECCENTRICITY":0.000164,"INCLINATION":87.8927,"RA_OF_ASC_NODE":33.8174,"ARG_OF_PERICENTER":94.1208,"MEAN_ANOMALY":266.0108,"EPHEMERIS_TYPE":0,"CLASSIFICATION_TYPE":"U","NORAD_CAT_ID":50479,"ELEMENT_SET_NO":999,"REV_AT_EPOCH":20719,"BSTAR":0.00099039,"MEAN_MOTION_DOT":3.64e-06,"MEAN_MOTION_DDOT":0.0},{"OBJECT_NAME":"ONEWEB-0400","OBJECT_ID":"2021-132M","EPOCH":"2026-04-13T23:15:21.672576","MEAN_MOTION":13.18683563,"ECCENTRICITY":0.0001737,"INCLINATION":87.9226,"RA_OF_ASC_NODE":348.212,"ARG_OF_PERICENTER":75.4614,"MEAN_ANOMALY":284.6711,"EPHEMERIS_TYPE":0,"CLASSIFICATION_TYPE":"U","NORAD_CAT_ID":50480,"ELEMENT_SET_NO":999,"REV_AT_EPOCH":21314,"BSTAR":-0.00016057,"MEAN_MOTION_DOT":-5e-07,"MEAN_MOTION_DDOT":0.0},{"OBJECT_NAME":"ONEWEB-0401","OBJECT_ID":"2021-132N","EPOCH":"2026-04-14T03:58:02.271648","MEAN_MOTION":13.18688948,"ECCENTRICITY":0.00019,"INCLINATION":87.9229,"RA_OF_ASC_NODE":348.1691,"ARG_OF_PERICENTER":82.493,"MEAN_ANOMALY":277.6418,"EPHEMERIS_TYPE":0,"CLASSIFICATION_TYPE":"U","NORAD_CAT_ID":50481,"ELEMENT_SET_NO":999,"REV_AT_EPOCH":21317,"BSTAR":0.00017423,"MEAN_MOTION_DOT":8.2e-07,"MEAN_MOTION_DDOT":0.0},{"OBJECT_NAME":"ONEWEB-0402","OBJECT_ID":"2021-132P","EPOCH":"2026-04-14T03:05:45.777120","MEAN_MOTION":13.18684762,"ECCENTRICITY":0.0002112,"INCLINATION":87.9229,"RA_OF_ASC_NODE":348.1674,"ARG_OF_PERICENTER":90.6436,"MEAN_ANOMALY":269.4938,"EPHEMERIS_TYPE":0,"CLASSIFICATION_TYPE":"U","NORAD_CAT_ID":50482,"ELEMENT_SET_NO":999,"REV_AT_EPOCH":21319,"BSTAR":0.00025024000000000004,"MEAN_MOTION_DOT":1.12e-06,"MEAN_MOTION_DDOT":0.0},{"OBJECT_NAME":"ONEWEB-0403","OBJECT_ID":"2021-132Q","EPOCH":"2026-04-14T03:41:24.018144","MEAN_MOTION":13.18685494,"ECCENTRICITY":0.0001635,"INCLINATION":87.9228,"RA_OF_ASC_NODE":348.1857,"ARG_OF_PERICENTER":82.0639,"MEAN_ANOMALY":278.0679,"EPHEMERIS_TYPE":0,"CLASSIFICATION_TYPE":"U","NORAD_CAT_ID":50483,"ELEMENT_SET_NO":999,"REV_AT_EPOCH":21315,"BSTAR":5.7916000000000006e-05,"MEAN_MOTION_DOT":3.6e-07,"MEAN_MOTION_DDOT":0.0},{"OBJECT_NAME":"ONEWEB-0404","OBJECT_ID":"2021-132R","EPOCH":"2026-04-14T03:58:56.360640","MEAN_MOTION":13.11417,"ECCENTRICITY":0.0001549,"INCLINATION":87.8914,"RA_OF_ASC_NODE":33.7943,"ARG_OF_PERICENTER":82.226,"MEAN_ANOMALY":277.9044,"EPHEMERIS_TYPE":0,"CLASSIFICATION_TYPE":"U","NORAD_CAT_ID":50484,"ELEMENT_SET_NO":999,"REV_AT_EPOCH":20730,"BSTAR":0.0011021,"MEAN_MOTION_DOT":4.03e-06,"MEAN_MOTION_DDOT":0.0}]