ONEWEB-0388             
1 49314U 21090AM  26103.88773065  .00000014  00000+0  20003-5 0  9993
2 49314  87.9167 317.7929 0001727  90.2619 269.8712 13.19727079217936
ONEWEB-0389             
1 50469U 21132A   26104.18451282  .00000057  00000+0  11311-3 0  9998
2 50469  87.9184  18.5819 0001494  87.2700 272.8603 13.17650180209659
ONEWEB-0390             
1 50470U 21132B   26104.18620514  .00000062  00000+0  12531-3 0  9997
2 50470  87.9187  18.5822 0001779  72.4942 287.6384 13.17650925209655
ONEWEB-0391             
1 50471U 21132C   26104.18788754  .00000039  00000+0  66543-4 0  9996
2 50471  87.9189  18.5911 0001004  85.8057 274.3189 13.17649929209651
ONEWEB-0392             
1 50472U 21132D   26104.14233806 -.00000135  00000+0 -38001-3 0  9992
2 50472  87.9200  18.5636 0001421  85.8176 274.3118 13.17647275209682
ONEWEB-0393             
1 50473U 21132E   26104.19381111 -.00000009  00000+0 -56985-4 0  9993
2 50473  87.9186  18.5754 0001640  81.2275 278.9042 13.17649348209689
ONEWEB-0394             
1 50474U 21132F   26104.13394652  .00000030  00000+0  44441-4 0  9998
2 50474  87.9227 348.1771 0001644  86.6473 273.4847 13.18686726213152
ONEWEB-0395             
1 50475U 21132G   26104.23034935 -.00000081  00000+0 -26486-3 0  9991
2 50475  87.8914  33.7837 0001667  75.8117 284.3196 13.11419800207336
ONEWEB-0396             
1 50476U 21132H   26104.12735297  .00000039  00000+0  67072-4 0  9997
2 50476  87.9229 348.1907 0001646  83.9395 276.1925 13.18685563213191
ONEWEB-0397             
1 50477U 21132J   26104.14220161 -.00000003  00000+0 -40923-4 0  9998
2 50477  87.9225 348.1877 0001772  88.7580 271.3755 13.18684983213174
ONEWEB-0398             
1 50478U 21132K   26104.27443786 -.00000065  00000+0 -21971-3 0  9992
2 50478  87.8926  33.7591 0001758  69.6213 290.5104 13.11416595207233
ONEWEB-0399             
1 50479U 21132L   26104.03198007  .00000364  00000+0  99039-3 0  9990
2 50479  87.8927  33.8174 0001640  94.1208 266.0108 13.11414275207190
ONEWEB-0400             
1 50480U 21132M   26103.96900084 -.00000050  00000+0 -16057-3 0  9992
2 50480  87.9226 348.2120 0001737  75.4614 284.6711 13.18683563213142
ONEWEB-0401             
1 50481U 21132N   26104.16530407  .00000082  00000+0  17423-3 0  9995
2 50481  87.9229 348.1691 0001900  82.4930 277.6418 13.18688948213170
ONEWEB-0402             
1 50482U 21132P   26104.12900205  .00000112  00000+0  25024-3 0  9999
2 50482  87.9229 348.1674 0002112  90.6436 269.4938 13.18684762213198
ONEWEB-0403             
1 50483U 21132Q   26104.15375021  .00000036  00000+0  57916-4 0  9996
2 50483  87.9228 348.1857 0001635  82.0639 278.0679 13.18685494213157
ONEWEB-0404             
1 50484U 21132R   26104.16593010  .00000403  00000+0  11021-2 0  9991
2 50484  87.8914  33.7943 0001549  82.2260 277.9044 13.11417000207301
